QIANFAN-17              
1 60395U 24140S   25279.18683722  .00000080  00000+0  10574-3 0  9993
2 60395  88.9765 306.4324 0016364  47.2358 313.0167 13.50972487 59011
QIANFAN-18              
1 60396U 24140T   25279.16628192  .00000061  00000+0  75619-4 0  9993
2 60396  88.9759 305.9732 0015168  31.6022 328.6037 13.50974045 58400
QIANFAN-19              
1 61552U 24185A   25279.22704480  .00000794  00000+0  40943-3 0  9993
2 61552  88.9761  85.6766 0007983 147.5344 212.6335 14.14187051 60126
QIANFAN-20              
1 61553U 24185B   25279.21157567  .00000728  00000+0  41437-3 0  9997
2 61553  88.9758  85.9342 0005567 176.2239 183.8988 14.08737186 59982
QIANFAN-21              
1 61554U 24185C   25279.22244684  .00001086  00000+0  48073-3 0  9997
2 61554  88.9676  84.8865 0009378 213.5126 146.5473 14.22462929 60370
QIANFAN-22              
1 61555U 24185D   25279.15741407  .00000269  00000+0  22106-3 0  9996
2 61555  88.9743  86.6503 0006271 184.4304 175.6813 13.86266561 59572
QIANFAN-23              
1 61556U 24185E   25279.22690758  .00001022  00000+0  50933-3 0  9994
2 61556  88.9753  85.5178 0008389 159.5231 200.6295 14.16178393 60196
QIANFAN-24              
1 61557U 24185F   25279.21196328  .00001116  00000+0  48282-3 0  9996
2 61557  88.9736  85.0349 0010664 148.2627 211.9209 14.23668459 60416
